[{"OBJECT_NAME":"VSP RF C1","OBJECT_ID":"2024-043AQ","EPOCH":"2026-03-09T21:56:05.358624","MEAN_MOTION":15.29409663,"ECCENTRICITY":0.00093965,"INCLINATION":97.5441,"RA_OF_ASC_NODE":205.1792,"ARG_OF_PERICENTER":219.6172,"MEAN_ANOMALY":140.4382,"EPHEMERIS_TYPE":0,"CLASSIFICATION_TYPE":"U","NORAD_CAT_ID":59136,"ELEMENT_SET_NO":999,"REV_AT_EPOCH":11190,"BSTAR":0.00026222052,"MEAN_MOTION_DOT":7.409e-5,"MEAN_MOTION_DDOT":0},{"OBJECT_NAME":"STARLINK-33976","OBJECT_ID":"2025-093Y","EPOCH":"2026-03-09T10:29:17.983680","MEAN_MOTION":15.27624713,"ECCENTRICITY":0.00041869,"INCLINATION":43.0078,"RA_OF_ASC_NODE":79.2845,"ARG_OF_PERICENTER":284.0658,"MEAN_ANOMALY":75.9728,"EPHEMERIS_TYPE":0,"CLASSIFICATION_TYPE":"U","NORAD_CAT_ID":63858,"ELEMENT_SET_NO":999,"REV_AT_EPOCH":4777,"BSTAR":0.0012395216,"MEAN_MOTION_DOT":0.00034057,"MEAN_MOTION_DDOT":0}]
